[
    {
        "Altitude(m)": 604221.2016465655,
        "Argument of Periapsis(deg)": 0.0,
        "Eccentricity": 0.0,
        "Inclination(deg)": 60.0,
        "Latitude(deg)": 14.117230567379377,
        "Longitude(deg)": -21.665874420054344,
        "Mean Anomaly(deg)": 16.363599999999998,
        "RAAN(deg)": 70.0,
        "Satellite Name": "Test1 309",
        "Satellite Number": 309,
        "Semi-Major Axis(m)": 6980739.136638005,
        "Time(s)": 0
    },
    {
        "Altitude(m)": 604235.342570406,
        "Argument of Periapsis(deg)": 0.00010418945913296404,
        "Eccentricity": 0.0,
        "Inclination(deg)": 60.0,
        "Latitude(deg)": 14.651627903652868,
        "Longitude(deg)": -21.37742861076093,
        "Mean Anomaly(deg)": 16.983706145461827,
        "RAAN(deg)": 69.99957995086027,
        "Satellite Name": "Test1 309",
        "Satellite Number": 309,
        "Semi-Major Axis(m)": 6980739.136638005,
        "Time(s)": 10
    }
]